45151,ONEWEB-0045,2020,109.8,148.0,+,87.89,Active,1,LEO,Kazakhstan,UK,Commercial,Communications,Soyuz,1 45151U 20008W   24284.59314557  .00000310  00000+0  83887-3 0  9995,2 45151  87.8927 143.4652 0001699  81.3732 278.7589 13.11420318229859,13.11420318,0.0001699,LEO
45152,ONEWEB-0047,2020,109.89,148.0,+,87.9,Active,1,LEO,Kazakhstan,UK,Commercial,Communications,Soyuz,1 45152U 20008X   24284.39488366 -.00000069  00000+0 -23295-3 0  9994,2 45152  87.8953 158.6530 0001597  74.7652 285.3652 13.10374650227686,13.1037465,0.0001597,LEO
45153,ONEWEB-0048,2020,109.89,148.0,+,87.9,Active,1,LEO,Kazakhstan,UK,Commercial,Communications,Soyuz,1 45153U 20008Y   24284.08447629 -.00000163  00000+0 -50278-3 0  9994,2 45153  87.8956 158.7324 0001527  74.4803 285.6492 13.10376585227257,13.10376585,0.0001527,LEO
45154,ONEWEB-0049,2020,109.89,148.0,+,87.9,Active,1,LEO,Kazakhstan,UK,Commercial,Communications,Soyuz,1 45154U 20008Z   24284.39156957 -.00000121  00000+0 -38266-3 0  9997,2 45154  87.8960 158.6556 0001201  60.7775 299.3472 13.10375332227512,13.10375332,0.0001201,LEO
45155,ONEWEB-0051,2020,109.8,148.0,+,87.89,Active,1,LEO,Kazakhstan,UK,Commercial,Communications,Soyuz,1 45155U 20008AA  24284.59146846  .00000384  00000+0  10483-2 0  9995,2 45155  87.8926 143.5076 0001826  75.8623 284.2708 13.11420187230538,13.11420187,0.0001826,LEO
45156,ONEWEB-0052,2020,109.89,148.0,+,87.9,Active,1,LEO,Kazakhstan,UK,Commercial,Communications,Soyuz,1 45156U 20008AB  24284.38824599 -.00000320  00000+0 -95280-3 0  9992,2 45156  87.8952 158.6191 0001166  68.3336 291.7915 13.10374752227420,13.10374752,0.0001166,LEO
45157,ONEWEB-0053,2020,109.89,148.0,+,87.9,Active,1,LEO,Kazakhstan,UK,Commercial,Communications,Soyuz,1 45157U 20008AC  24284.21726975 -.00000391  00000+0 -11565-2 0  9995,2 45157  87.8951 158.7075 0001597  89.5824 270.5486 13.10371283227375,13.10371283,0.0001597,LEO
45158,ONEWEB-0054,2020,109.89,148.0,+,87.89,Active,1,LEO,Kazakhstan,UK,Commercial,Communications,Soyuz,1 45158U 20008AD  24284.40485669  .00000386  00000+0  10683-2 0  9991,2 45158  87.8949 158.6505 0001677  73.4272 286.7040 13.10374874227518,13.10374874,0.0001677,LEO
